GONETS-M 15             
1 44906U 19096B   26138.53473574 -.00000122  00000+0 -95252-3 0  9998
2 44906  82.5225 103.4798 0013961 239.3906 120.5798 12.42869802289961
GONETS-M 16             
1 44907U 19096C   26138.48096994 -.00000040  00000+0 -36204-3 0  9991
2 44907  82.5172 102.4795 0009741 286.7495  73.2516 12.42890724289946
RS-44 & BREEZE-KM R/B   
1 44909U 19096E   26138.37433919  .00000027  00000+0  67720-4 0  9994
2 44909  82.5233 359.5193 0216838 213.8594 144.8505 12.79748223298535
JILIN-1 KUANFU 01       
1 45016U 20003A   26138.47788825  .00002271  00000+0  14143-3 0  9997
2 45016  97.5035 213.0157 0010876  51.8527 308.3681 15.10540270350840
XINGYUN-2 01            
1 45602U 20028A   26138.48848729  .00001445  00000+0  88673-4 0  9998
2 45602  97.4861 131.4823 0007775 316.5182  43.5434 15.11671177330352
XINGYUN-2 02            
1 45603U 20028B   26138.52811058  .00001465  00000+0  90430-4 0  9995
2 45603  97.5074 145.0436 0011747  23.3199 336.8561 15.11406783330354
HAIYANG-1D              
1 45721U 20036A   26138.53143677 -.00000072  00000+0 -10427-4 0  9994
2 45721  98.4550  80.8583 0001629 219.1355 140.9713 14.34161541310726
M2 PATHFINDER           
1 45727U 20037E   26138.25291086  .00001188  00000+0  89307-4 0  9998
2 45727  97.8161 329.1504 0009930 251.4495 108.5652 15.04533933320990
GAOFEN DUOMO (GFDM)     
1 45856U 20042A   26138.53176963  .00000709  00000+0  10793-3 0  9994
2 45856  97.7765 199.4942 0011321 161.4179 198.7447 14.76835224316637
ZIYUAN 3-03 (ZY 3-03)   
1 45939U 20051A   26138.52134600  .00004214  00000+0  19013-3 0  9996
2 45939  97.2849 207.2030 0006927  63.0578 297.1365 15.21509988322837
NEMO-HD                 
1 46277U 20061F   26138.51700691  .00006816  00000+0  15171-3 0  9992
2 46277  97.1934 200.7807 0002587 116.6845 243.4668 15.43946123317404
NAPA-1                  
1 46320U 20061BA  26138.51298223  .00038825  00000+0  40977-3 0  9991
2 46320  97.2485 211.8046 0001830 141.2792 218.8599 15.64129580317095
JILIN-1 GAOFEN 3E       
1 46457U 20065D   26138.49323837  .00034624  00000+0  42559-3 0  9994
2 46457  97.2279 190.4901 0009942 261.7449  98.2681 15.60144681315127
JILIN-1 GAOFEN 3F       
1 46458U 20065E   26138.47118204  .00028591  00000+0  38267-3 0  9990
2 46458  97.2234 187.9334 0011649 250.4373 109.5625 15.57897112315076
JILIN-1 GAOFEN 3G       
1 46459U 20065F   26138.48226331  .00048528  00000+0  47143-3 0  9998
2 46459  97.2308 194.3043 0012660 154.7066 205.4817 15.66080775315288
JILIN-1 GAOFEN 3H       
1 46460U 20065G   26138.52589863  .00040053  00000+0  43162-3 0  9999
2 46460  97.2253 190.8343 0008832 104.2370 255.9871 15.63545227315248
HAIYANG-2C              
1 46469U 20066A   26138.52491711 -.00000196  00000+0 -10421-3 0  9991
2 46469  65.9974 289.1353 0009971 239.8749 120.1332 13.83371432285394
HJ-2A                   
1 46478U 20067A   26138.48374111  .00000218  00000+0  38460-4 0  9998
2 46478  97.8833 217.5557 0003801  26.0616 334.0785 14.76569681303878
HJ-2B                   
1 46479U 20067B   26138.52006116  .00000712  00000+0  10933-3 0  9994
2 46479  97.8896 218.5908 0001283  79.1201 281.0154 14.76516559303888
GONETS-M 17             
1 46486U 20068A   26138.50568581  .00000087  00000+0  55217-3 0  9999
2 46486  82.5011   5.9705 0023377  99.0329 261.3398 12.42872222255474
GONETS-M 18             
1 46487U 20068B   26138.54983896  .00000105  00000+0  68823-3 0  9992
2 46487  82.4964   5.0722 0020699  95.3954 264.9488 12.42871607255462
GONETS-M 19             
1 46488U 20068C   26138.52569616  .00000206  00000+0  14134-2 0  9998
2 46488  82.4989   5.5321 0014301 109.0839 251.1790 12.42891862255568
DEKART                  
1 46493U 20068H   26138.51917152  .00007608  00000+0  21508-3 0  9992
2 46493  97.8747 145.6823 0010077  41.3475 318.8528 15.36605299311217
NORBI                   
1 46494U 20068J   26138.54698534  .00014566  00000+0  28910-3 0  9991
2 46494  97.8638 151.9306 0006824  24.3191 335.8378 15.47102805311628
SALSAT                  
1 46495U 20068K   26138.44490691  .00004803  00000+0  17157-3 0  9999
2 46495  97.8853 139.7110 0011188  54.3549 305.8730 15.29321812310814
ICEYE-X6                
1 46497U 20068M   26138.52726275  .00002244  00000+0  16573-3 0  9998
2 46497  98.0975 130.7870 0007085 178.8031 181.3212 15.04346227308771
NETSAT-4                
1 46504U 20068U   26138.49435456  .00011013  00000+0  25348-3 0  9995
2 46504  97.8611 144.3747 0007435  75.7611 284.4460 15.42798689311191
NETSAT-3                
1 46505U 20068V   26138.47740281  .00011142  00000+0  26708-3 0  9993
2 46505  97.8660 142.6116 0007497  88.7525 271.4579 15.41572600311103
