OBJECT_NAME,OBJECT_ID,EPOCH,MEAN_MOTION,ECCENTRICITY,INCLINATION,RA_OF_ASC_NODE,ARG_OF_PERICENTER,MEAN_ANOMALY,EPHEMERIS_TYPE,CLASSIFICATION_TYPE,NORAD_CAT_ID,ELEMENT_SET_NO,REV_AT_EPOCH,BSTAR,MEAN_MOTION_DOT,MEAN_MOTION_DDOT
GONETS-M 15,2019-096B,2026-05-18T12:50:01.167936,12.42869802,.0013961,82.5225,103.4798,239.3906,120.5798,0,U,44906,999,28996,-.95252E-3,-.122E-5,0
GONETS-M 16,2019-096C,2026-05-18T11:32:35.802816,12.42890724,.0009741,82.5172,102.4795,286.7495,73.2516,0,U,44907,999,28994,-.36204E-3,-.4E-6,0
RS-44 & BREEZE-KM R/B,2019-096E,2026-05-18T08:59:02.906016,12.79748223,.0216838,82.5233,359.5193,213.8594,144.8505,0,U,44909,999,29853,.6772E-4,.27E-6,0
JILIN-1 KUANFU 01,2020-003A,2026-05-18T11:28:09.544800,15.10540270,.0010876,97.5035,213.0157,51.8527,308.3681,0,U,45016,999,35084,.14143E-3,.2271E-4,0
XINGYUN-2 01,2020-028A,2026-05-18T11:43:25.301856,15.11671177,.0007775,97.4861,131.4823,316.5182,43.5434,0,U,45602,999,33035,.88673E-4,.1445E-4,0
XINGYUN-2 02,2020-028B,2026-05-18T12:40:28.754112,15.11406783,.0011747,97.5074,145.0436,23.3199,336.8561,0,U,45603,999,33035,.9043E-4,.1465E-4,0
HAIYANG-1D,2020-036A,2026-05-18T12:45:16.136928,14.34161541,.0001629,98.4550,80.8583,219.1355,140.9713,0,U,45721,999,31072,-.10427E-4,-.72E-6,0
M2 PATHFINDER,2020-037E,2026-05-18T06:04:11.498304,15.04533933,.000993,97.8161,329.1504,251.4495,108.5652,0,U,45727,999,32099,.89307E-4,.1188E-4,0
GAOFEN DUOMO (GFDM),2020-042A,2026-05-18T12:45:44.896032,14.76835224,.0011321,97.7765,199.4942,161.4179,198.7447,0,U,45856,999,31663,.10793E-3,.709E-5,0
ZIYUAN 3-03 (ZY 3-03),2020-051A,2026-05-18T12:30:44.294400,15.21509988,.0006927,97.2849,207.2030,63.0578,297.1365,0,U,45939,999,32283,.19013E-3,.4214E-4,0
NEMO-HD,2020-061F,2026-05-18T12:24:29.397024,15.43946123,.0002587,97.1934,200.7807,116.6845,243.4668,0,U,46277,999,31740,.15171E-3,.6816E-4,0
NAPA-1,2020-061BA,2026-05-18T12:18:41.664672,15.64129580,.000183,97.2485,211.8046,141.2792,218.8599,0,U,46320,999,31709,.40977E-3,.38825E-3,0
JILIN-1 GAOFEN 3E,2020-065D,2026-05-18T11:50:15.795168,15.60144681,.0009942,97.2279,190.4901,261.7449,98.2681,0,U,46457,999,31512,.42559E-3,.34624E-3,0
JILIN-1 GAOFEN 3F,2020-065E,2026-05-18T11:18:30.128256,15.57897112,.0011649,97.2234,187.9334,250.4373,109.5625,0,U,46458,999,31507,.38267E-3,.28591E-3,0
JILIN-1 GAOFEN 3G,2020-065F,2026-05-18T11:34:27.549984,15.66080775,.001266,97.2308,194.3043,154.7066,205.4817,0,U,46459,999,31528,.47143E-3,.48528E-3,0
JILIN-1 GAOFEN 3H,2020-065G,2026-05-18T12:37:17.641632,15.63545227,.0008832,97.2253,190.8343,104.2370,255.9871,0,U,46460,999,31524,.43162E-3,.40053E-3,0
HAIYANG-2C,2020-066A,2026-05-18T12:35:52.838304,13.83371432,.0009971,65.9974,289.1353,239.8749,120.1332,0,U,46469,999,28539,-.10421E-3,-.196E-5,0
HJ-2A,2020-067A,2026-05-18T11:36:35.231904,14.76569681,.0003801,97.8833,217.5557,26.0616,334.0785,0,U,46478,999,30387,.3846E-4,.218E-5,0
HJ-2B,2020-067B,2026-05-18T12:28:53.284224,14.76516559,.0001283,97.8896,218.5908,79.1201,281.0154,0,U,46479,999,30388,.10933E-3,.712E-5,0
GONETS-M 17,2020-068A,2026-05-18T12:08:11.253984,12.42872222,.0023377,82.5011,5.9705,99.0329,261.3398,0,U,46486,999,25547,.55217E-3,.87E-6,0
GONETS-M 18,2020-068B,2026-05-18T13:11:46.086144,12.42871607,.0020699,82.4964,5.0722,95.3954,264.9488,0,U,46487,999,25546,.68823E-3,.105E-5,0
GONETS-M 19,2020-068C,2026-05-18T12:37:00.148224,12.42891862,.0014301,82.4989,5.5321,109.0839,251.1790,0,U,46488,999,25556,.14134E-2,.206E-5,0
DEKART,2020-068H,2026-05-18T12:27:36.419328,15.36605299,.0010077,97.8747,145.6823,41.3475,318.8528,0,U,46493,999,31121,.21508E-3,.7608E-4,0
NORBI,2020-068J,2026-05-18T13:07:39.533376,15.47102805,.0006824,97.8638,151.9306,24.3191,335.8378,0,U,46494,999,31162,.2891E-3,.14566E-3,0
SALSAT,2020-068K,2026-05-18T10:40:39.957024,15.29321812,.0011188,97.8853,139.7110,54.3549,305.8730,0,U,46495,999,31081,.17157E-3,.4803E-4,0
ICEYE-X6,2020-068M,2026-05-18T12:39:15.501600,15.04346227,.0007085,98.0975,130.7870,178.8031,181.3212,0,U,46497,999,30877,.16573E-3,.2244E-4,0
NETSAT-4,2020-068U,2026-05-18T11:51:52.233984,15.42798689,.0007435,97.8611,144.3747,75.7611,284.4460,0,U,46504,999,31119,.25348E-3,.11013E-3,0
NETSAT-3,2020-068V,2026-05-18T11:27:27.602784,15.41572600,.0007497,97.8660,142.6116,88.7525,271.4579,0,U,46505,999,31110,.26708E-3,.11142E-3,0
